*******************************************************************************
JPL/HORIZONS                 258 Tyche (A886 JA)           2023-Sep-04 11:05:18
Rec #:     258 (+COV) Soln.date: 2023-Aug-22_23:20:10   # obs: 3977 (1886-2023)
 
IAU76/J2000 helio. ecliptic osc. elements (au, days, deg., period=Julian yrs):
 
  EPOCH=  2456954.5 ! 2014-Oct-24.00 (TDB)         Residual RMS= .32342
   EC= .2045810134282127   QR= 2.080170415223034   TP= 2456921.3261883622
   OM= 207.6436260206696   W=  154.6888063702092   IN= 14.29853379667339
   A= 2.615188284841497    MA= 7.73116612139582    ADIST= 3.15020615445996
   PER= 4.22924            N= .233050281           ANGMOM= .027230079
   DAN= 3.0743             DDN= 2.11465            L= 3.0222901
   B= 6.0611597            MOID= 1.08712006        TP= 2014-Sep-20.8261883622
 
Asteroid physical parameters (km, seconds, rotational period in hours):
   GM= n.a.                RAD= 32.39              ROTPER= 10.041
   H= 8.35                 G= .230                 B-V= .876
                           ALBEDO= .1676           STYP= S

ASTEROID comments: 
1: soln ref.= JPL#94, OCC=0
2: source=ORB
*******************************************************************************


*******************************************************************************
Ephemeris / API_USER Mon Sep  4 11:05:18 2023 Pasadena, USA      / Horizons
*******************************************************************************
Target body name: 258 Tyche (A886 JA)             {source: JPL#94}
Center body name: Solar System Barycenter (0)     {source: DE441}
Center-site name: BODY CENTER
*******************************************************************************
Start time      : A.D. 2023-Aug-12 00:00:00.0000 TDB
Stop  time      : A.D. 2023-Aug-13 00:00:00.0000 TDB
Step-size       : 2880 minutes
*******************************************************************************
Center geodetic : 0.0, 0.0, 0.0                   {E-lon(deg),Lat(deg),Alt(km)}
Center cylindric: 0.0, 0.0, 0.0                   {E-lon(deg),Dxy(km),Dz(km)}
Center radii    : (undefined)
Small perturbers: Yes                             {source: SB441-N16}
Output units    : KM-S
Calendar mode   : Mixed Julian/Gregorian
Output type     : GEOMETRIC cartesian states
Output format   : 2 (position and velocity)
Reference frame : Ecliptic of J2000.0
*******************************************************************************
Initial IAU76/J2000 heliocentric ecliptic osculating elements (au, days, deg.):
  EPOCH=  2456954.5 ! 2014-Oct-24.00 (TDB)         Residual RMS= .32342        
   EC= .2045810134282127   QR= 2.080170415223034   TP= 2456921.3261883622      
   OM= 207.6436260206696   W=  154.6888063702092   IN= 14.29853379667339       
  Equivalent ICRF heliocentric cartesian coordinates (au, au/d):
   X= 2.016519903260966E+00  Y= 4.366783238260841E-01  Z= 3.193736465952801E-01
  VX=-2.587215547599762E-03 VY= 1.262032847750787E-02 VZ= 2.084688813123094E-03
Asteroid physical parameters (km, seconds, rotational period in hours):        
   GM= n.a.                RAD= 32.39              ROTPER= 10.041              
   H= 8.35                 G= .230                 B-V= .876                   
                           ALBEDO= .1676           STYP= S                     
*******************************************************************************
JDTDB
   X     Y     Z
   VX    VY    VZ
*******************************************************************************
$$SOE
2460168.500000000 = A.D. 2023-Aug-12 00:00:00.0000 TDB 
 X = 1.885018413356381E+08 Y = 2.708295841421900E+08 Z =-3.895947249944759E+07
 VX=-1.546881741426732E+01 VY= 1.388239960119042E+01 VZ=-4.975202874284210E+00
$$EOE
*******************************************************************************
 
TIME

  Barycentric Dynamical Time ("TDB" or T_eph) output was requested. This
continuous coordinate time is equivalent to the relativistic proper time
of a clock at rest in a reference frame co-moving with the solar system
barycenter but outside the system's gravity well. It is the independent
variable in the solar system relativistic equations of motion.

  TDB runs at a uniform rate of one SI second per second and is independent
of irregularities in Earth's rotation.
 
CALENDAR SYSTEM

  Mixed calendar mode was active such that calendar dates after AD 1582-Oct-15
(if any) are in the modern Gregorian system. Dates prior to 1582-Oct-5 (if any)
are in the Julian calendar system, which is automatically extended for dates
prior to its adoption on 45-Jan-1 BC.  The Julian calendar is useful for
matching historical dates. The Gregorian calendar more accurately corresponds
to the Earth's orbital motion and seasons. A "Gregorian-only" calendar mode is
available if such physical events are the primary interest.

REFERENCE FRAME AND COORDINATES

  Ecliptic at the standard reference epoch

    Reference epoch: J2000.0
    X-Y plane: adopted Earth orbital plane at the reference epoch
               Note: IAU76 obliquity of 84381.448 arcseconds wrt ICRF X-Y plane
    X-axis   : ICRF
    Z-axis   : perpendicular to the X-Y plane in the directional (+ or -) sense
               of Earth's north pole at the reference epoch.

  Symbol meaning:

    JDTDB    Julian Day Number, Barycentric Dynamical Time
      X      X-component of position vector (km)
      Y      Y-component of position vector (km)
      Z      Z-component of position vector (km)
      VX     X-component of velocity vector (km/sec)                           
      VY     Y-component of velocity vector (km/sec)                           
      VZ     Z-component of velocity vector (km/sec)                           

ABERRATIONS AND CORRECTIONS

 Geometric state vectors have NO corrections or aberrations applied.

Computations by ...

    Solar System Dynamics Group, Horizons On-Line Ephemeris System
    4800 Oak Grove Drive, Jet Propulsion Laboratory
    Pasadena, CA  91109   USA

    General site: https://ssd.jpl.nasa.gov/
    Mailing list: https://ssd.jpl.nasa.gov/email_list.html
    System news : https://ssd.jpl.nasa.gov/horizons/news.html
    User Guide  : https://ssd.jpl.nasa.gov/horizons/manual.html
    Connect     : browser        https://ssd.jpl.nasa.gov/horizons/app.html#/x
                  API            https://ssd-api.jpl.nasa.gov/doc/horizons.html
                  command-line   telnet ssd.jpl.nasa.gov 6775
                  e-mail/batch   https://ssd.jpl.nasa.gov/ftp/ssd/hrzn_batch.txt
                  scripts        https://ssd.jpl.nasa.gov/ftp/ssd/SCRIPTS
    Author      : Jon.D.Giorgini@jpl.nasa.gov
*******************************************************************************
